{
  "type": "FeatureCollection",
  "features": [
    {
      "type": "Feature",
      "properties": {
        "name": "Bogadi",
        "GP_Name": "Bogadi",
        "taluk": "Mysuru"
      },
      "geometry": {
        "type": "Polygon",
        "coordinates": [
          [
            [
              76.8694,
              12.2758
            ],
            [
              76.90939999999999,
              12.2758
            ],
            [
              76.90939999999999,
              12.3158
            ],
            [
              76.8694,
              12.3158
            ],
            [
              76.8694,
              12.2758
            ]
          ]
        ]
      }
    },
    {
      "type": "Feature",
      "properties": {
        "name": "Srirampura",
        "GP_Name": "Srirampura",
        "taluk": "Mysuru"
      },
      "geometry": {
        "type": "Polygon",
        "coordinates": [
          [
            [
              76.90471695488854,
              12.368505098312484
            ],
            [
              76.94471695488853,
              12.368505098312484
            ],
            [
              76.94471695488853,
              12.408505098312483
            ],
            [
              76.90471695488854,
              12.408505098312483
            ],
            [
              76.90471695488854,
              12.368505098312484
            ]
          ]
        ]
      }
    },
    {
      "type": "Feature",
      "properties": {
        "name": "Rammanahalli",
        "GP_Name": "Rammanahalli",
        "taluk": "Mysuru"
      },
      "geometry": {
        "type": "Polygon",
        "coordinates": [
          [
            [
              76.90255594803124,
              12.481524838302366
            ],
            [
              76.94255594803123,
              12.481524838302366
            ],
            [
              76.94255594803123,
              12.521524838302366
            ],
            [
              76.90255594803124,
              12.521524838302366
            ],
            [
              76.90255594803124,
              12.481524838302366
            ]
          ]
        ]
      }
    },
    {
      "type": "Feature",
      "properties": {
        "name": "Kadakola",
        "GP_Name": "Kadakola",
        "taluk": "Mysuru"
      },
      "geometry": {
        "type": "Polygon",
        "coordinates": [
          [
            [
              76.76634631307311,
              12.478054248593738
            ],
            [
              76.8063463130731,
              12.478054248593738
            ],
            [
              76.8063463130731,
              12.518054248593737
            ],
            [
              76.76634631307311,
              12.518054248593737
            ],
            [
              76.76634631307311,
              12.478054248593738
            ]
          ]
        ]
      }
    },
    {
      "type": "Feature",
      "properties": {
        "name": "Hinkal",
        "GP_Name": "Hinkal",
        "taluk": "Mysuru"
      },
      "geometry": {
        "type": "Polygon",
        "coordinates": [
          [
            [
              76.71210509831248,
              12.561116954888547
            ],
            [
              76.75210509831247,
              12.561116954888547
            ],
            [
              76.75210509831247,
              12.601116954888546
            ],
            [
              76.71210509831248,
              12.601116954888546
            ],
            [
              76.71210509831248,
              12.561116954888547
            ]
          ]
        ]
      }
    },
    {
      "type": "Feature",
      "properties": {
        "name": "Belawadi",
        "GP_Name": "Belawadi",
        "taluk": "Mysuru"
      },
      "geometry": {
        "type": "Polygon",
        "coordinates": [
          [
            [
              76.6194,
              12.6258
            ],
            [
              76.65939999999999,
              12.6258
            ],
            [
              76.65939999999999,
              12.665799999999999
            ],
            [
              76.6194,
              12.665799999999999
            ],
            [
              76.6194,
              12.6258
            ]
          ]
        ]
      }
    },
    {
      "type": "Feature",
      "properties": {
        "name": "Varuna",
        "GP_Name": "Varuna",
        "taluk": "Mysuru"
      },
      "geometry": {
        "type": "Polygon",
        "coordinates": [
          [
            [
              76.54214575140627,
              12.513564129073789
            ],
            [
              76.58214575140626,
              12.513564129073789
            ],
            [
              76.58214575140626,
              12.553564129073788
            ],
            [
              76.54214575140627,
              12.553564129073788
            ],
            [
              76.54214575140627,
              12.513564129073789
            ]
          ]
        ]
      }
    },
    {
      "type": "Feature",
      "properties": {
        "name": "Yelawala",
        "GP_Name": "Yelawala",
        "taluk": "Mysuru"
      },
      "geometry": {
        "type": "Polygon",
        "coordinates": [
          [
            [
              76.44306442431225,
              12.518505098312485
            ],
            [
              76.48306442431225,
              12.518505098312485
            ],
            [
              76.48306442431225,
              12.558505098312484
            ],
            [
              76.44306442431225,
              12.558505098312484
            ],
            [
              76.44306442431225,
              12.518505098312485
            ]
          ]
        ]
      }
    },
    {
      "type": "Feature",
      "properties": {
        "name": "Halebeedu",
        "GP_Name": "Halebeedu",
        "taluk": "Mysuru"
      },
      "geometry": {
        "type": "Polygon",
        "coordinates": [
          [
            [
              76.33624405196876,
              12.481524838302366
            ],
            [
              76.37624405196875,
              12.481524838302366
            ],
            [
              76.37624405196875,
              12.521524838302366
            ],
            [
              76.33624405196876,
              12.521524838302366
            ],
            [
              76.33624405196876,
              12.481524838302366
            ]
          ]
        ]
      }
    },
    {
      "type": "Feature",
      "properties": {
        "name": "Hanagodu",
        "GP_Name": "Hanagodu",
        "taluk": "Mysuru"
      },
      "geometry": {
        "type": "Polygon",
        "coordinates": [
          [
            [
              76.38163587092622,
              12.353054248593738
            ],
            [
              76.42163587092621,
              12.353054248593738
            ],
            [
              76.42163587092621,
              12.393054248593737
            ],
            [
              76.38163587092622,
              12.393054248593737
            ],
            [
              76.38163587092622,
              12.353054248593738
            ]
          ]
        ]
      }
    },
    {
      "type": "Feature",
      "properties": {
        "name": "Bilikere",
        "GP_Name": "Bilikere",
        "taluk": "Mysuru"
      },
      "geometry": {
        "type": "Polygon",
        "coordinates": [
          [
            [
              76.3194,
              12.2758
            ],
            [
              76.3594,
              12.2758
            ],
            [
              76.3594,
              12.3158
            ],
            [
              76.3194,
              12.3158
            ],
            [
              76.3194,
              12.2758
            ]
          ]
        ]
      }
    },
    {
      "type": "Feature",
      "properties": {
        "name": "Gurupur",
        "GP_Name": "Gurupur",
        "taluk": "Mysuru"
      },
      "geometry": {
        "type": "Polygon",
        "coordinates": [
          [
            [
              76.2865302192967,
              12.167644051968768
            ],
            [
              76.32653021929669,
              12.167644051968768
            ],
            [
              76.32653021929669,
              12.207644051968767
            ],
            [
              76.2865302192967,
              12.207644051968767
            ],
            [
              76.2865302192967,
              12.167644051968768
            ]
          ]
        ]
      }
    },
    {
      "type": "Feature",
      "properties": {
        "name": "Hampapura",
        "GP_Name": "Hampapura",
        "taluk": "Mysuru"
      },
      "geometry": {
        "type": "Polygon",
        "coordinates": [
          [
            [
              76.41714575140627,
              12.128853686926883
            ],
            [
              76.45714575140626,
              12.128853686926883
            ],
            [
              76.45714575140626,
              12.168853686926882
            ],
            [
              76.41714575140627,
              12.168853686926882
            ],
            [
              76.41714575140627,
              12.128853686926883
            ]
          ]
        ]
      }
    },
    {
      "type": "Feature",
      "properties": {
        "name": "Antharasanthe",
        "GP_Name": "Antharasanthe",
        "taluk": "Mysuru"
      },
      "geometry": {
        "type": "Polygon",
        "coordinates": [
          [
            [
              76.44306442431225,
              12.033094901687516
            ],
            [
              76.48306442431225,
              12.033094901687516
            ],
            [
              76.48306442431225,
              12.073094901687515
            ],
            [
              76.44306442431225,
              12.073094901687515
            ],
            [
              76.44306442431225,
              12.033094901687516
            ]
          ]
        ]
      }
    },
    {
      "type": "Feature",
      "properties": {
        "name": "Hullahalli",
        "GP_Name": "Hullahalli",
        "taluk": "Mysuru"
      },
      "geometry": {
        "type": "Polygon",
        "coordinates": [
          [
            [
              76.51124405196877,
              11.942930219296697
            ],
            [
              76.55124405196877,
              11.942930219296697
            ],
            [
              76.55124405196877,
              11.982930219296696
            ],
            [
              76.51124405196877,
              11.982930219296696
            ],
            [
              76.51124405196877,
              11.942930219296697
            ]
          ]
        ]
      }
    },
    {
      "type": "Feature",
      "properties": {
        "name": "Suttur",
        "GP_Name": "Suttur",
        "taluk": "Mysuru"
      },
      "geometry": {
        "type": "Polygon",
        "coordinates": [
          [
            [
              76.6194,
              12.0258
            ],
            [
              76.65939999999999,
              12.0258
            ],
            [
              76.65939999999999,
              12.0658
            ],
            [
              76.6194,
              12.0658
            ],
            [
              76.6194,
              12.0258
            ]
          ]
        ]
      }
    },
    {
      "type": "Feature",
      "properties": {
        "name": "Devanuru",
        "GP_Name": "Devanuru",
        "taluk": "Mysuru"
      },
      "geometry": {
        "type": "Polygon",
        "coordinates": [
          [
            [
              76.71210509831248,
              11.990483045111453
            ],
            [
              76.75210509831247,
              11.990483045111453
            ],
            [
              76.75210509831247,
              12.030483045111453
            ],
            [
              76.71210509831248,
              12.030483045111453
            ],
            [
              76.71210509831248,
              11.990483045111453
            ]
          ]
        ]
      }
    },
    {
      "type": "Feature",
      "properties": {
        "name": "Bettadapura",
        "GP_Name": "Bettadapura",
        "taluk": "Mysuru"
      },
      "geometry": {
        "type": "Polygon",
        "coordinates": [
          [
            [
              76.82512483830236,
              11.99264405196877
            ],
            [
              76.86512483830235,
              11.99264405196877
            ],
            [
              76.86512483830235,
              12.032644051968768
            ],
            [
              76.82512483830236,
              12.032644051968768
            ],
            [
              76.82512483830236,
              11.99264405196877
            ]
          ]
        ]
      }
    },
    {
      "type": "Feature",
      "properties": {
        "name": "Bylakuppe",
        "GP_Name": "Bylakuppe",
        "taluk": "Mysuru"
      },
      "geometry": {
        "type": "Polygon",
        "coordinates": [
          [
            [
              76.82165424859373,
              12.128853686926881
            ],
            [
              76.86165424859372,
              12.128853686926881
            ],
            [
              76.86165424859372,
              12.16885368692688
            ],
            [
              76.82165424859373,
              12.16885368692688
            ],
            [
              76.82165424859373,
              12.128853686926881
            ]
          ]
        ]
      }
    },
    {
      "type": "Feature",
      "properties": {
        "name": "Talkad",
        "GP_Name": "Talkad",
        "taluk": "Mysuru"
      },
      "geometry": {
        "type": "Polygon",
        "coordinates": [
          [
            [
              76.90471695488854,
              12.183094901687516
            ],
            [
              76.94471695488853,
              12.183094901687516
            ],
            [
              76.94471695488853,
              12.223094901687515
            ],
            [
              76.90471695488854,
              12.223094901687515
            ],
            [
              76.90471695488854,
              12.183094901687516
            ]
          ]
        ]
      }
    }
  ]
}