{
  "type": "FeatureCollection",
  "features": [
    {
      "type": "Feature",
      "properties": {
        "name": "570001",
        "pin": "570001",
        "PIN": "570001"
      },
      "geometry": {
        "type": "Polygon",
        "coordinates": [
          [
            [
              76.6674,
              12.2838
            ],
            [
              76.6914,
              12.2838
            ],
            [
              76.6914,
              12.3078
            ],
            [
              76.6674,
              12.3078
            ],
            [
              76.6674,
              12.2838
            ]
          ]
        ]
      }
    },
    {
      "type": "Feature",
      "properties": {
        "name": "570002",
        "pin": "570002",
        "PIN": "570002"
      },
      "geometry": {
        "type": "Polygon",
        "coordinates": [
          [
            [
              76.65976067977499,
              12.307311410091698
            ],
            [
              76.68376067977499,
              12.307311410091698
            ],
            [
              76.68376067977499,
              12.331311410091699
            ],
            [
              76.65976067977499,
              12.331311410091699
            ],
            [
              76.65976067977499,
              12.307311410091698
            ]
          ]
        ]
      }
    },
    {
      "type": "Feature",
      "properties": {
        "name": "570003",
        "pin": "570003",
        "PIN": "570003"
      },
      "geometry": {
        "type": "Polygon",
        "coordinates": [
          [
            [
              76.639760679775,
              12.321842260651806
            ],
            [
              76.663760679775,
              12.321842260651806
            ],
            [
              76.663760679775,
              12.345842260651807
            ],
            [
              76.639760679775,
              12.345842260651807
            ],
            [
              76.639760679775,
              12.321842260651806
            ]
          ]
        ]
      }
    },
    {
      "type": "Feature",
      "properties": {
        "name": "570004",
        "pin": "570004",
        "PIN": "570004"
      },
      "geometry": {
        "type": "Polygon",
        "coordinates": [
          [
            [
              76.615039320225,
              12.321842260651806
            ],
            [
              76.639039320225,
              12.321842260651806
            ],
            [
              76.639039320225,
              12.345842260651807
            ],
            [
              76.615039320225,
              12.345842260651807
            ],
            [
              76.615039320225,
              12.321842260651806
            ]
          ]
        ]
      }
    },
    {
      "type": "Feature",
      "properties": {
        "name": "570005",
        "pin": "570005",
        "PIN": "570005"
      },
      "geometry": {
        "type": "Polygon",
        "coordinates": [
          [
            [
              76.595039320225,
              12.307311410091698
            ],
            [
              76.619039320225,
              12.307311410091698
            ],
            [
              76.619039320225,
              12.331311410091699
            ],
            [
              76.595039320225,
              12.331311410091699
            ],
            [
              76.595039320225,
              12.307311410091698
            ]
          ]
        ]
      }
    },
    {
      "type": "Feature",
      "properties": {
        "name": "570006",
        "pin": "570006",
        "PIN": "570006"
      },
      "geometry": {
        "type": "Polygon",
        "coordinates": [
          [
            [
              76.58739999999999,
              12.2838
            ],
            [
              76.61139999999999,
              12.2838
            ],
            [
              76.61139999999999,
              12.3078
            ],
            [
              76.58739999999999,
              12.3078
            ],
            [
              76.58739999999999,
              12.2838
            ]
          ]
        ]
      }
    },
    {
      "type": "Feature",
      "properties": {
        "name": "570007",
        "pin": "570007",
        "PIN": "570007"
      },
      "geometry": {
        "type": "Polygon",
        "coordinates": [
          [
            [
              76.595039320225,
              12.260288589908301
            ],
            [
              76.619039320225,
              12.260288589908301
            ],
            [
              76.619039320225,
              12.284288589908302
            ],
            [
              76.595039320225,
              12.284288589908302
            ],
            [
              76.595039320225,
              12.260288589908301
            ]
          ]
        ]
      }
    },
    {
      "type": "Feature",
      "properties": {
        "name": "570008",
        "pin": "570008",
        "PIN": "570008"
      },
      "geometry": {
        "type": "Polygon",
        "coordinates": [
          [
            [
              76.615039320225,
              12.245757739348193
            ],
            [
              76.639039320225,
              12.245757739348193
            ],
            [
              76.639039320225,
              12.269757739348194
            ],
            [
              76.615039320225,
              12.269757739348194
            ],
            [
              76.615039320225,
              12.245757739348193
            ]
          ]
        ]
      }
    },
    {
      "type": "Feature",
      "properties": {
        "name": "570009",
        "pin": "570009",
        "PIN": "570009"
      },
      "geometry": {
        "type": "Polygon",
        "coordinates": [
          [
            [
              76.639760679775,
              12.245757739348193
            ],
            [
              76.663760679775,
              12.245757739348193
            ],
            [
              76.663760679775,
              12.269757739348194
            ],
            [
              76.639760679775,
              12.269757739348194
            ],
            [
              76.639760679775,
              12.245757739348193
            ]
          ]
        ]
      }
    },
    {
      "type": "Feature",
      "properties": {
        "name": "570010",
        "pin": "570010",
        "PIN": "570010"
      },
      "geometry": {
        "type": "Polygon",
        "coordinates": [
          [
            [
              76.65976067977499,
              12.260288589908301
            ],
            [
              76.68376067977499,
              12.260288589908301
            ],
            [
              76.68376067977499,
              12.284288589908302
            ],
            [
              76.65976067977499,
              12.284288589908302
            ],
            [
              76.65976067977499,
              12.260288589908301
            ]
          ]
        ]
      }
    }
  ]
}