{
  "type": "FeatureCollection",
  "features": [
    {
      "type": "Feature",
      "properties": {
        "name": "Post Office 570001",
        "pin": "570001"
      },
      "geometry": {
        "type": "Polygon",
        "coordinates": [
          [
            [
              76.6744,
              12.290799999999999
            ],
            [
              76.6844,
              12.290799999999999
            ],
            [
              76.6844,
              12.3008
            ],
            [
              76.6744,
              12.3008
            ],
            [
              76.6744,
              12.290799999999999
            ]
          ]
        ]
      }
    },
    {
      "type": "Feature",
      "properties": {
        "name": "Post Office 570002",
        "pin": "570002"
      },
      "geometry": {
        "type": "Polygon",
        "coordinates": [
          [
            [
              76.666760679775,
              12.314311410091697
            ],
            [
              76.67676067977499,
              12.314311410091697
            ],
            [
              76.67676067977499,
              12.324311410091699
            ],
            [
              76.666760679775,
              12.324311410091699
            ],
            [
              76.666760679775,
              12.314311410091697
            ]
          ]
        ]
      }
    },
    {
      "type": "Feature",
      "properties": {
        "name": "Post Office 570003",
        "pin": "570003"
      },
      "geometry": {
        "type": "Polygon",
        "coordinates": [
          [
            [
              76.646760679775,
              12.328842260651806
            ],
            [
              76.65676067977499,
              12.328842260651806
            ],
            [
              76.65676067977499,
              12.338842260651807
            ],
            [
              76.646760679775,
              12.338842260651807
            ],
            [
              76.646760679775,
              12.328842260651806
            ]
          ]
        ]
      }
    },
    {
      "type": "Feature",
      "properties": {
        "name": "Post Office 570004",
        "pin": "570004"
      },
      "geometry": {
        "type": "Polygon",
        "coordinates": [
          [
            [
              76.622039320225,
              12.328842260651806
            ],
            [
              76.63203932022499,
              12.328842260651806
            ],
            [
              76.63203932022499,
              12.338842260651807
            ],
            [
              76.622039320225,
              12.338842260651807
            ],
            [
              76.622039320225,
              12.328842260651806
            ]
          ]
        ]
      }
    },
    {
      "type": "Feature",
      "properties": {
        "name": "Post Office 570005",
        "pin": "570005"
      },
      "geometry": {
        "type": "Polygon",
        "coordinates": [
          [
            [
              76.602039320225,
              12.314311410091697
            ],
            [
              76.612039320225,
              12.314311410091697
            ],
            [
              76.612039320225,
              12.324311410091699
            ],
            [
              76.602039320225,
              12.324311410091699
            ],
            [
              76.602039320225,
              12.314311410091697
            ]
          ]
        ]
      }
    },
    {
      "type": "Feature",
      "properties": {
        "name": "Post Office 570006",
        "pin": "570006"
      },
      "geometry": {
        "type": "Polygon",
        "coordinates": [
          [
            [
              76.5944,
              12.290799999999999
            ],
            [
              76.60439999999998,
              12.290799999999999
            ],
            [
              76.60439999999998,
              12.3008
            ],
            [
              76.5944,
              12.3008
            ],
            [
              76.5944,
              12.290799999999999
            ]
          ]
        ]
      }
    },
    {
      "type": "Feature",
      "properties": {
        "name": "Post Office 570007",
        "pin": "570007"
      },
      "geometry": {
        "type": "Polygon",
        "coordinates": [
          [
            [
              76.602039320225,
              12.2672885899083
            ],
            [
              76.612039320225,
              12.2672885899083
            ],
            [
              76.612039320225,
              12.277288589908302
            ],
            [
              76.602039320225,
              12.277288589908302
            ],
            [
              76.602039320225,
              12.2672885899083
            ]
          ]
        ]
      }
    },
    {
      "type": "Feature",
      "properties": {
        "name": "Post Office 570008",
        "pin": "570008"
      },
      "geometry": {
        "type": "Polygon",
        "coordinates": [
          [
            [
              76.622039320225,
              12.252757739348192
            ],
            [
              76.63203932022499,
              12.252757739348192
            ],
            [
              76.63203932022499,
              12.262757739348194
            ],
            [
              76.622039320225,
              12.262757739348194
            ],
            [
              76.622039320225,
              12.252757739348192
            ]
          ]
        ]
      }
    },
    {
      "type": "Feature",
      "properties": {
        "name": "Post Office 570009",
        "pin": "570009"
      },
      "geometry": {
        "type": "Polygon",
        "coordinates": [
          [
            [
              76.646760679775,
              12.252757739348192
            ],
            [
              76.65676067977499,
              12.252757739348192
            ],
            [
              76.65676067977499,
              12.262757739348194
            ],
            [
              76.646760679775,
              12.262757739348194
            ],
            [
              76.646760679775,
              12.252757739348192
            ]
          ]
        ]
      }
    },
    {
      "type": "Feature",
      "properties": {
        "name": "Post Office 570010",
        "pin": "570010"
      },
      "geometry": {
        "type": "Polygon",
        "coordinates": [
          [
            [
              76.666760679775,
              12.2672885899083
            ],
            [
              76.67676067977499,
              12.2672885899083
            ],
            [
              76.67676067977499,
              12.277288589908302
            ],
            [
              76.666760679775,
              12.277288589908302
            ],
            [
              76.666760679775,
              12.2672885899083
            ]
          ]
        ]
      }
    }
  ]
}