{
  "type": "FeatureCollection",
  "features": [
    {
      "type": "Feature",
      "properties": {
        "name": "Varuna"
      },
      "geometry": {
        "type": "Polygon",
        "coordinates": [
          [
            [
              76.8244,
              12.2808
            ],
            [
              76.8544,
              12.2808
            ],
            [
              76.8544,
              12.3108
            ],
            [
              76.8244,
              12.3108
            ],
            [
              76.8244,
              12.2808
            ]
          ]
        ]
      }
    },
    {
      "type": "Feature",
      "properties": {
        "name": "Jayapura"
      },
      "geometry": {
        "type": "Polygon",
        "coordinates": [
          [
            [
              76.82665424859373,
              12.427746313073117
            ],
            [
              76.85665424859373,
              12.427746313073117
            ],
            [
              76.85665424859373,
              12.457746313073118
            ],
            [
              76.82665424859373,
              12.457746313073118
            ],
            [
              76.82665424859373,
              12.427746313073117
            ]
          ]
        ]
      }
    },
    {
      "type": "Feature",
      "properties": {
        "name": "Kadakola"
      },
      "geometry": {
        "type": "Polygon",
        "coordinates": [
          [
            [
              76.68620339887498,
              12.47101130325903
            ],
            [
              76.71620339887498,
              12.47101130325903
            ],
            [
              76.71620339887498,
              12.50101130325903
            ],
            [
              76.68620339887498,
              12.50101130325903
            ],
            [
              76.68620339887498,
              12.47101130325903
            ]
          ]
        ]
      }
    },
    {
      "type": "Feature",
      "properties": {
        "name": "Hinkal"
      },
      "geometry": {
        "type": "Polygon",
        "coordinates": [
          [
            [
              76.54714575140626,
              12.518564129073788
            ],
            [
              76.57714575140626,
              12.518564129073788
            ],
            [
              76.57714575140626,
              12.548564129073789
            ],
            [
              76.54714575140626,
              12.548564129073789
            ],
            [
              76.54714575140626,
              12.518564129073788
            ]
          ]
        ]
      }
    },
    {
      "type": "Feature",
      "properties": {
        "name": "Belawadi"
      },
      "geometry": {
        "type": "Polygon",
        "coordinates": [
          [
            [
              76.462596601125,
              12.398357050458493
            ],
            [
              76.492596601125,
              12.398357050458493
            ],
            [
              76.492596601125,
              12.428357050458494
            ],
            [
              76.462596601125,
              12.428357050458494
            ],
            [
              76.462596601125,
              12.398357050458493
            ]
          ]
        ]
      }
    },
    {
      "type": "Feature",
      "properties": {
        "name": "Yelawala"
      },
      "geometry": {
        "type": "Polygon",
        "coordinates": [
          [
            [
              76.3744,
              12.2808
            ],
            [
              76.4044,
              12.2808
            ],
            [
              76.4044,
              12.3108
            ],
            [
              76.3744,
              12.3108
            ],
            [
              76.3744,
              12.2808
            ]
          ]
        ]
      }
    },
    {
      "type": "Feature",
      "properties": {
        "name": "Hosahundi"
      },
      "geometry": {
        "type": "Polygon",
        "coordinates": [
          [
            [
              76.462596601125,
              12.163242949541505
            ],
            [
              76.492596601125,
              12.163242949541505
            ],
            [
              76.492596601125,
              12.193242949541506
            ],
            [
              76.462596601125,
              12.193242949541506
            ],
            [
              76.462596601125,
              12.163242949541505
            ]
          ]
        ]
      }
    },
    {
      "type": "Feature",
      "properties": {
        "name": "Marballi"
      },
      "geometry": {
        "type": "Polygon",
        "coordinates": [
          [
            [
              76.54714575140626,
              12.04303587092621
            ],
            [
              76.57714575140626,
              12.04303587092621
            ],
            [
              76.57714575140626,
              12.073035870926212
            ],
            [
              76.54714575140626,
              12.073035870926212
            ],
            [
              76.54714575140626,
              12.04303587092621
            ]
          ]
        ]
      }
    },
    {
      "type": "Feature",
      "properties": {
        "name": "Naganahalli"
      },
      "geometry": {
        "type": "Polygon",
        "coordinates": [
          [
            [
              76.68620339887498,
              12.09058869674097
            ],
            [
              76.71620339887498,
              12.09058869674097
            ],
            [
              76.71620339887498,
              12.12058869674097
            ],
            [
              76.68620339887498,
              12.12058869674097
            ],
            [
              76.68620339887498,
              12.09058869674097
            ]
          ]
        ]
      }
    },
    {
      "type": "Feature",
      "properties": {
        "name": "Dhanagalli"
      },
      "geometry": {
        "type": "Polygon",
        "coordinates": [
          [
            [
              76.82665424859373,
              12.13385368692688
            ],
            [
              76.85665424859373,
              12.13385368692688
            ],
            [
              76.85665424859373,
              12.163853686926881
            ],
            [
              76.82665424859373,
              12.163853686926881
            ],
            [
              76.82665424859373,
              12.13385368692688
            ]
          ]
        ]
      }
    }
  ]
}