{
  "type": "FeatureCollection",
  "features": [
    {
      "type": "Feature",
      "properties": {
        "name": "Mysuru Sub-Division"
      },
      "geometry": {
        "type": "Polygon",
        "coordinates": [
          [
            [
              76.3,
              12.040000000000001
            ],
            [
              76.7,
              12.040000000000001
            ],
            [
              76.7,
              12.44
            ],
            [
              76.3,
              12.44
            ],
            [
              76.3,
              12.040000000000001
            ]
          ]
        ]
      }
    },
    {
      "type": "Feature",
      "properties": {
        "name": "Hunsur Sub-Division"
      },
      "geometry": {
        "type": "Polygon",
        "coordinates": [
          [
            [
              76.09,
              12.200000000000001
            ],
            [
              76.49000000000001,
              12.200000000000001
            ],
            [
              76.49000000000001,
              12.6
            ],
            [
              76.09,
              12.6
            ],
            [
              76.09,
              12.200000000000001
            ]
          ]
        ]
      }
    }
  ]
}