{
  "type": "FeatureCollection",
  "features": [
    {
      "type": "Feature",
      "properties": {
        "name": "Mysuru Taluk Panchayat",
        "taluk": "Mysuru"
      },
      "geometry": {
        "type": "Polygon",
        "coordinates": [
          [
            [
              76.555,
              12.209999999999999
            ],
            [
              76.725,
              12.209999999999999
            ],
            [
              76.725,
              12.38
            ],
            [
              76.555,
              12.38
            ],
            [
              76.555,
              12.209999999999999
            ]
          ]
        ]
      }
    },
    {
      "type": "Feature",
      "properties": {
        "name": "Hunsur Taluk Panchayat",
        "taluk": "Hunsur"
      },
      "geometry": {
        "type": "Polygon",
        "coordinates": [
          [
            [
              76.20500000000001,
              12.225
            ],
            [
              76.375,
              12.225
            ],
            [
              76.375,
              12.395000000000001
            ],
            [
              76.20500000000001,
              12.395000000000001
            ],
            [
              76.20500000000001,
              12.225
            ]
          ]
        ]
      }
    },
    {
      "type": "Feature",
      "properties": {
        "name": "H.D. Kote Taluk Panchayat",
        "taluk": "H.D. Kote"
      },
      "geometry": {
        "type": "Polygon",
        "coordinates": [
          [
            [
              76.245,
              12.004999999999999
            ],
            [
              76.41499999999999,
              12.004999999999999
            ],
            [
              76.41499999999999,
              12.175
            ],
            [
              76.245,
              12.175
            ],
            [
              76.245,
              12.004999999999999
            ]
          ]
        ]
      }
    },
    {
      "type": "Feature",
      "properties": {
        "name": "K.R. Nagar Taluk Panchayat",
        "taluk": "K.R. Nagar"
      },
      "geometry": {
        "type": "Polygon",
        "coordinates": [
          [
            [
              76.28500000000001,
              12.354999999999999
            ],
            [
              76.455,
              12.354999999999999
            ],
            [
              76.455,
              12.525
            ],
            [
              76.28500000000001,
              12.525
            ],
            [
              76.28500000000001,
              12.354999999999999
            ]
          ]
        ]
      }
    },
    {
      "type": "Feature",
      "properties": {
        "name": "Nanjangud Taluk Panchayat",
        "taluk": "Nanjangud"
      },
      "geometry": {
        "type": "Polygon",
        "coordinates": [
          [
            [
              76.59500000000001,
              12.034999999999998
            ],
            [
              76.765,
              12.034999999999998
            ],
            [
              76.765,
              12.205
            ],
            [
              76.59500000000001,
              12.205
            ],
            [
              76.59500000000001,
              12.034999999999998
            ]
          ]
        ]
      }
    },
    {
      "type": "Feature",
      "properties": {
        "name": "Periyapatna Taluk Panchayat",
        "taluk": "Periyapatna"
      },
      "geometry": {
        "type": "Polygon",
        "coordinates": [
          [
            [
              75.985,
              12.264999999999999
            ],
            [
              76.15499999999999,
              12.264999999999999
            ],
            [
              76.15499999999999,
              12.435
            ],
            [
              75.985,
              12.435
            ],
            [
              75.985,
              12.264999999999999
            ]
          ]
        ]
      }
    },
    {
      "type": "Feature",
      "properties": {
        "name": "T. Narasipura Taluk Panchayat",
        "taluk": "T. Narasipura"
      },
      "geometry": {
        "type": "Polygon",
        "coordinates": [
          [
            [
              76.825,
              12.125
            ],
            [
              76.99499999999999,
              12.125
            ],
            [
              76.99499999999999,
              12.295000000000002
            ],
            [
              76.825,
              12.295000000000002
            ],
            [
              76.825,
              12.125
            ]
          ]
        ]
      }
    },
    {
      "type": "Feature",
      "properties": {
        "name": "Sargur Taluk Panchayat",
        "taluk": "Sargur"
      },
      "geometry": {
        "type": "Polygon",
        "coordinates": [
          [
            [
              76.34500000000001,
              11.944999999999999
            ],
            [
              76.515,
              11.944999999999999
            ],
            [
              76.515,
              12.115
            ],
            [
              76.34500000000001,
              12.115
            ],
            [
              76.34500000000001,
              11.944999999999999
            ]
          ]
        ]
      }
    },
    {
      "type": "Feature",
      "properties": {
        "name": "Saligrama Taluk Panchayat",
        "taluk": "Saligrama"
      },
      "geometry": {
        "type": "Polygon",
        "coordinates": [
          [
            [
              76.25500000000001,
              12.475
            ],
            [
              76.425,
              12.475
            ],
            [
              76.425,
              12.645000000000001
            ],
            [
              76.25500000000001,
              12.645000000000001
            ],
            [
              76.25500000000001,
              12.475
            ]
          ]
        ]
      }
    }
  ]
}